ISS (ZARYA)             
1 25544U 98067A   25321.32008588  .00017447  00000+0  31567-3 0  9994
2 25544  51.6331 268.2969 0004176  80.2379 279.9081 15.49753355538919
CSS (TIANHE)            
1 48274U 21035A   25321.47151122  .00032330  00000+0  40260-3 0  9997
2 48274  41.4655 170.0240 0006881 181.9372 178.1441 15.59218103260087
ISS (NAUKA)             
1 49044U 21066A   25321.19111821  .00017975  00000+0  32502-3 0  9996
2 49044  51.6331 268.9357 0004176  79.7820 280.3640 15.49748902230448
FREGAT DEB              
1 49271U 11037PF  25321.14610798  .00011134  00000+0  24095-1 0  9994
2 49271  51.6212 275.1233 0877547 168.6643 193.5460 12.34104191198773
CSS (WENTIAN)           
1 53239U 22085A   25321.27935719  .00032197  00000+0  40114-3 0  9999
2 53239  41.4656 171.1907 0006843 180.4022 179.6812 15.59206063173848
CSS (MENGTIAN)          
1 54216U 22143A   25321.27935719  .00032197  00000+0  40114-3 0  9990
2 54216  41.4656 171.1907 0006843 180.4022 179.6812 15.59206063158645
SOYUZ-MS 27             
1 63520U 25072A   25321.19111821  .00017975  00000+0  32502-3 0  9992
2 63520  51.6331 268.9357 0004176  79.7820 280.3640 15.49748902 20204
SHENZHOU-20 (SZ-20)     
1 63632U 25082A   25321.27935719  .00032197  00000+0  40114-3 0  9997
2 63632  41.4656 171.1907 0006843 180.4022 179.6812 15.59206063255308
PROGRESS-MS 31          
1 64751U 25146A   25321.19111821  .00017975  00000+0  32502-3 0  9991
2 64751  51.6331 268.9357 0004176  79.7820 280.3640 15.49748902  6755
TIANZHOU-9              
1 64786U 25149A   25321.27935719  .00032197  00000+0  40114-3 0  9992
2 64786  41.4656 171.1907 0006843 180.4022 179.6812 15.59206063255309
CREW DRAGON 11          
1 65077U 25166A   25321.19111821  .00017975  00000+0  32502-3 0  9995
2 65077  51.6331 268.9357 0004176  79.7820 280.3640 15.49748902  2146
DRAGON CRS-33           
1 65304U 25186A   25321.19111821  .00017975  00000+0  32502-3 0  9990
2 65304  51.6331 268.9357 0004176  79.7820 280.3640 15.49748902   114
