CCSDS_OMM_VERS = 2.0
CREATION_DATE  = 
ORIGINATOR     = 

OBJECT_NAME    = ISS (ZARYA)
OBJECT_ID      = 1998-067A
CENTER_NAME    = EARTH
REF_FRAME      = TEME
TIME_SYSTEM    = UTC
MEAN_ELEMENT_THEORY = SGP/SGP4

EPOCH          = 2025-11-17T07:40:55.420032
MEAN_MOTION    = 15.49753355
ECCENTRICITY   = .0004176
INCLINATION    = 51.6331
RA_OF_ASC_NODE = 268.2969
ARG_OF_PERICENTER = 80.2379
MEAN_ANOMALY   = 279.9081

EPHEMERIS_TYPE = 0
CLASSIFICATION_TYPE = U
NORAD_CAT_ID   = 25544
ELEMENT_SET_NO = 999
REV_AT_EPOCH   = 53891
BSTAR          = .31567E-3
MEAN_MOTION_DOT = .17447E-3
MEAN_MOTION_DDOT = 0

CCSDS_OMM_VERS = 2.0
CREATION_DATE  = 
ORIGINATOR     = 

OBJECT_NAME    = CSS (TIANHE)
OBJECT_ID      = 2021-035A
CENTER_NAME    = EARTH
REF_FRAME      = TEME
TIME_SYSTEM    = UTC
MEAN_ELEMENT_THEORY = SGP/SGP4

EPOCH          = 2025-11-17T11:18:58.569408
MEAN_MOTION    = 15.59218103
ECCENTRICITY   = .0006881
INCLINATION    = 41.4655
RA_OF_ASC_NODE = 170.0240
ARG_OF_PERICENTER = 181.9372
MEAN_ANOMALY   = 178.1441

EPHEMERIS_TYPE = 0
CLASSIFICATION_TYPE = U
NORAD_CAT_ID   = 48274
ELEMENT_SET_NO = 999
REV_AT_EPOCH   = 26008
BSTAR          = .4026E-3
MEAN_MOTION_DOT = .3233E-3
MEAN_MOTION_DDOT = 0

CCSDS_OMM_VERS = 2.0
CREATION_DATE  = 
ORIGINATOR     = 

OBJECT_NAME    = ISS (NAUKA)
OBJECT_ID      = 2021-066A
CENTER_NAME    = EARTH
REF_FRAME      = TEME
TIME_SYSTEM    = UTC
MEAN_ELEMENT_THEORY = SGP/SGP4

EPOCH          = 2025-11-17T04:35:12.613344
MEAN_MOTION    = 15.49748902
ECCENTRICITY   = .00041761
INCLINATION    = 51.6331
RA_OF_ASC_NODE = 268.9357
ARG_OF_PERICENTER = 79.7820
MEAN_ANOMALY   = 280.3640

EPHEMERIS_TYPE = 0
CLASSIFICATION_TYPE = U
NORAD_CAT_ID   = 49044
ELEMENT_SET_NO = 999
REV_AT_EPOCH   = 23044
BSTAR          = .32501715E-3
MEAN_MOTION_DOT = .17975E-3
MEAN_MOTION_DDOT = 0

CCSDS_OMM_VERS = 2.0
CREATION_DATE  = 
ORIGINATOR     = 

OBJECT_NAME    = FREGAT DEB
OBJECT_ID      = 2011-037PF
CENTER_NAME    = EARTH
REF_FRAME      = TEME
TIME_SYSTEM    = UTC
MEAN_ELEMENT_THEORY = SGP/SGP4

EPOCH          = 2025-11-17T03:30:23.729472
MEAN_MOTION    = 12.34104191
ECCENTRICITY   = .08775478
INCLINATION    = 51.6212
RA_OF_ASC_NODE = 275.1233
ARG_OF_PERICENTER = 168.6643
MEAN_ANOMALY   = 193.5460

EPHEMERIS_TYPE = 0
CLASSIFICATION_TYPE = U
NORAD_CAT_ID   = 49271
ELEMENT_SET_NO = 999
REV_AT_EPOCH   = 19877
BSTAR          = .24094829E-1
MEAN_MOTION_DOT = .11134E-3
MEAN_MOTION_DDOT = 0

CCSDS_OMM_VERS = 2.0
CREATION_DATE  = 
ORIGINATOR     = 

OBJECT_NAME    = CSS (WENTIAN)
OBJECT_ID      = 2022-085A
CENTER_NAME    = EARTH
REF_FRAME      = TEME
TIME_SYSTEM    = UTC
MEAN_ELEMENT_THEORY = SGP/SGP4

EPOCH          = 2025-11-17T06:42:16.461216
MEAN_MOTION    = 15.59206063
ECCENTRICITY   = .00068435
INCLINATION    = 41.4656
RA_OF_ASC_NODE = 171.1907
ARG_OF_PERICENTER = 180.4022
MEAN_ANOMALY   = 179.6812

EPHEMERIS_TYPE = 0
CLASSIFICATION_TYPE = U
NORAD_CAT_ID   = 53239
ELEMENT_SET_NO = 999
REV_AT_EPOCH   = 17384
BSTAR          = .4011427E-3
MEAN_MOTION_DOT = .32197E-3
MEAN_MOTION_DDOT = 0

CCSDS_OMM_VERS = 2.0
CREATION_DATE  = 
ORIGINATOR     = 

OBJECT_NAME    = CSS (MENGTIAN)
OBJECT_ID      = 2022-143A
CENTER_NAME    = EARTH
REF_FRAME      = TEME
TIME_SYSTEM    = UTC
MEAN_ELEMENT_THEORY = SGP/SGP4

EPOCH          = 2025-11-17T06:42:16.461216
MEAN_MOTION    = 15.59206063
ECCENTRICITY   = .00068435
INCLINATION    = 41.4656
RA_OF_ASC_NODE = 171.1907
ARG_OF_PERICENTER = 180.4022
MEAN_ANOMALY   = 179.6812

EPHEMERIS_TYPE = 0
CLASSIFICATION_TYPE = U
NORAD_CAT_ID   = 54216
ELEMENT_SET_NO = 999
REV_AT_EPOCH   = 15864
BSTAR          = .4011427E-3
MEAN_MOTION_DOT = .32197E-3
MEAN_MOTION_DDOT = 0

CCSDS_OMM_VERS = 2.0
CREATION_DATE  = 
ORIGINATOR     = 

OBJECT_NAME    = SOYUZ-MS 27
OBJECT_ID      = 2025-072A
CENTER_NAME    = EARTH
REF_FRAME      = TEME
TIME_SYSTEM    = UTC
MEAN_ELEMENT_THEORY = SGP/SGP4

EPOCH          = 2025-11-17T04:35:12.613344
MEAN_MOTION    = 15.49748902
ECCENTRICITY   = .00041761
INCLINATION    = 51.6331
RA_OF_ASC_NODE = 268.9357
ARG_OF_PERICENTER = 79.7820
MEAN_ANOMALY   = 280.3640

EPHEMERIS_TYPE = 0
CLASSIFICATION_TYPE = U
NORAD_CAT_ID   = 63520
ELEMENT_SET_NO = 999
REV_AT_EPOCH   = 2020
BSTAR          = .32501715E-3
MEAN_MOTION_DOT = .17975E-3
MEAN_MOTION_DDOT = 0

CCSDS_OMM_VERS = 2.0
CREATION_DATE  = 
ORIGINATOR     = 

OBJECT_NAME    = SHENZHOU-20 (SZ-20)
OBJECT_ID      = 2025-082A
CENTER_NAME    = EARTH
REF_FRAME      = TEME
TIME_SYSTEM    = UTC
MEAN_ELEMENT_THEORY = SGP/SGP4

EPOCH          = 2025-11-17T06:42:16.461216
MEAN_MOTION    = 15.59206063
ECCENTRICITY   = .00068435
INCLINATION    = 41.4656
RA_OF_ASC_NODE = 171.1907
ARG_OF_PERICENTER = 180.4022
MEAN_ANOMALY   = 179.6812

EPHEMERIS_TYPE = 0
CLASSIFICATION_TYPE = U
NORAD_CAT_ID   = 63632
ELEMENT_SET_NO = 999
REV_AT_EPOCH   = 25530
BSTAR          = .4011427E-3
MEAN_MOTION_DOT = .32197E-3
MEAN_MOTION_DDOT = 0

CCSDS_OMM_VERS = 2.0
CREATION_DATE  = 
ORIGINATOR     = 

OBJECT_NAME    = PROGRESS-MS 31
OBJECT_ID      = 2025-146A
CENTER_NAME    = EARTH
REF_FRAME      = TEME
TIME_SYSTEM    = UTC
MEAN_ELEMENT_THEORY = SGP/SGP4

EPOCH          = 2025-11-17T04:35:12.613344
MEAN_MOTION    = 15.49748902
ECCENTRICITY   = .00041761
INCLINATION    = 51.6331
RA_OF_ASC_NODE = 268.9357
ARG_OF_PERICENTER = 79.7820
MEAN_ANOMALY   = 280.3640

EPHEMERIS_TYPE = 0
CLASSIFICATION_TYPE = U
NORAD_CAT_ID   = 64751
ELEMENT_SET_NO = 999
REV_AT_EPOCH   = 675
BSTAR          = .32501715E-3
MEAN_MOTION_DOT = .17975E-3
MEAN_MOTION_DDOT = 0

CCSDS_OMM_VERS = 2.0
CREATION_DATE  = 
ORIGINATOR     = 

OBJECT_NAME    = TIANZHOU-9
OBJECT_ID      = 2025-149A
CENTER_NAME    = EARTH
REF_FRAME      = TEME
TIME_SYSTEM    = UTC
MEAN_ELEMENT_THEORY = SGP/SGP4

EPOCH          = 2025-11-17T06:42:16.461216
MEAN_MOTION    = 15.59206063
ECCENTRICITY   = .00068435
INCLINATION    = 41.4656
RA_OF_ASC_NODE = 171.1907
ARG_OF_PERICENTER = 180.4022
MEAN_ANOMALY   = 179.6812

EPHEMERIS_TYPE = 0
CLASSIFICATION_TYPE = U
NORAD_CAT_ID   = 64786
ELEMENT_SET_NO = 999
REV_AT_EPOCH   = 25530
BSTAR          = .4011427E-3
MEAN_MOTION_DOT = .32197E-3
MEAN_MOTION_DDOT = 0

CCSDS_OMM_VERS = 2.0
CREATION_DATE  = 
ORIGINATOR     = 

OBJECT_NAME    = CREW DRAGON 11
OBJECT_ID      = 2025-166A
CENTER_NAME    = EARTH
REF_FRAME      = TEME
TIME_SYSTEM    = UTC
MEAN_ELEMENT_THEORY = SGP/SGP4

EPOCH          = 2025-11-17T04:35:12.613344
MEAN_MOTION    = 15.49748902
ECCENTRICITY   = .00041761
INCLINATION    = 51.6331
RA_OF_ASC_NODE = 268.9357
ARG_OF_PERICENTER = 79.7820
MEAN_ANOMALY   = 280.3640

EPHEMERIS_TYPE = 0
CLASSIFICATION_TYPE = U
NORAD_CAT_ID   = 65077
ELEMENT_SET_NO = 999
REV_AT_EPOCH   = 214
BSTAR          = .32501715E-3
MEAN_MOTION_DOT = .17975E-3
MEAN_MOTION_DDOT = 0

CCSDS_OMM_VERS = 2.0
CREATION_DATE  = 
ORIGINATOR     = 

OBJECT_NAME    = DRAGON CRS-33
OBJECT_ID      = 2025-186A
CENTER_NAME    = EARTH
REF_FRAME      = TEME
TIME_SYSTEM    = UTC
MEAN_ELEMENT_THEORY = SGP/SGP4

EPOCH          = 2025-11-17T04:35:12.613344
MEAN_MOTION    = 15.49748902
ECCENTRICITY   = .00041761
INCLINATION    = 51.6331
RA_OF_ASC_NODE = 268.9357
ARG_OF_PERICENTER = 79.7820
MEAN_ANOMALY   = 280.3640

EPHEMERIS_TYPE = 0
CLASSIFICATION_TYPE = U
NORAD_CAT_ID   = 65304
ELEMENT_SET_NO = 999
REV_AT_EPOCH   = 11
BSTAR          = .32501715E-3
MEAN_MOTION_DOT = .17975E-3
MEAN_MOTION_DDOT = 0

